TEVEL2-1                
1 63217U 25052H   26068.64782323  .00020683  00000+0  70600-3 0  9994
2 63217  97.3991 324.7682 0004767 104.8919 255.2849 15.30341923 54855
STARLINK-35752          
1 66275U 25247L   26068.63367614  .00036408  00000+0  12356-2 0  9993
2 66275  53.1577 191.8054 0001290  62.6386 297.4746 15.30193397 21022
